[{"OBJECT_NAME":"OBJECT D","OBJECT_ID":"2024-085D","EPOCH":"2026-03-09T22:53:13.410816","MEAN_MOTION":15.33413141,"ECCENTRICITY":0.00152451,"INCLINATION":97.3312,"RA_OF_ASC_NODE":145.3953,"ARG_OF_PERICENTER":54.9672,"MEAN_ANOMALY":305.2998,"EPHEMERIS_TYPE":0,"CLASSIFICATION_TYPE":"U","NORAD_CAT_ID":59680,"ELEMENT_SET_NO":999,"REV_AT_EPOCH":10244,"BSTAR":0.00049264705,"MEAN_MOTION_DOT":0.00015903,"MEAN_MOTION_DDOT":0},{"OBJECT_NAME":"STARLINK-35844","OBJECT_ID":"2025-283C","EPOCH":"2026-03-09T03:33:07.013376","MEAN_MOTION":15.30201934,"ECCENTRICITY":0.00010057,"INCLINATION":53.162,"RA_OF_ASC_NODE":26.5109,"ARG_OF_PERICENTER":78.7465,"MEAN_ANOMALY":281.3648,"EPHEMERIS_TYPE":0,"CLASSIFICATION_TYPE":"U","NORAD_CAT_ID":66880,"ELEMENT_SET_NO":999,"REV_AT_EPOCH":1576,"BSTAR":0.00062349324,"MEAN_MOTION_DOT":0.00018153,"MEAN_MOTION_DDOT":0}]
